[{"OBJECT_NAME":"ONEWEB-0192","OBJECT_ID":"2021-031N","EPOCH":"2026-03-09T16:21:59.517504","MEAN_MOTION":13.14502505,"ECCENTRICITY":0.00017307,"INCLINATION":87.8976,"RA_OF_ASC_NODE":309.5687,"ARG_OF_PERICENTER":82.9257,"MEAN_ANOMALY":277.207,"EPHEMERIS_TYPE":0,"CLASSIFICATION_TYPE":"U","NORAD_CAT_ID":48222,"ELEMENT_SET_NO":999,"REV_AT_EPOCH":23510,"BSTAR":-0.00030200996,"MEAN_MOTION_DOT":-9.9e-7,"MEAN_MOTION_DDOT":0},{"OBJECT_NAME":"DELTA 1 DEB","OBJECT_ID":"1975-052CR","EPOCH":"2026-03-09T17:15:10.171008","MEAN_MOTION":13.14305797,"ECCENTRICITY":0.01520038,"INCLINATION":99.7818,"RA_OF_ASC_NODE":145.6609,"ARG_OF_PERICENTER":343.4366,"MEAN_ANOMALY":144.2043,"EPHEMERIS_TYPE":0,"CLASSIFICATION_TYPE":"U","NORAD_CAT_ID":21371,"ELEMENT_SET_NO":999,"REV_AT_EPOCH":66891,"BSTAR":0.00020001683,"MEAN_MOTION_DOT":3.8e-7,"MEAN_MOTION_DDOT":0}]
